      2.10          N: GNSS NAV DATA                        RINEX VERSION / TYPE
fic2rin                                 06/21/2023 00:18:03 PGM / RUN BY / DATE
                                                            END OF HEADER
6  23  6 20  1 59 44.0  .584068708122D-03 -.227373675443D-11  .000000000000D+00
     .700000000000D+01  .693750000000D+01  .395873632583D-08  .844202679127D+00
     .506639480591D-06  .271996366791D-02  .575557351112D-06  .515368558693D+04
     .179984000000D+06  .223517417908D-07  .188579493292D+01 -.372529029846D-07
     .989025050212D+00  .380593750000D+03 -.746327479215D+00 -.810069456930D-08
     .146434671020D-09  .100000000000D+01  .226700000000D+04  .000000000000D+00
     .240000000000D+01  .000000000000D+00  .372529029846D-08  .700000000000D+01
     .172800000000D+06  .400000000000D+01
12 23  6 20 12  0  0.0 -.390891451389D-03 -.466116034659D-11  .000000000000D+00
     .410000000000D+02  .271250000000D+02  .443411327004D-08 -.174464395664D+01
     .159814953804D-05  .873557501473D-02  .924617052078D-05  .515359002686D+04
     .216000000000D+06  .154599547386D-06 -.148671568950D+00  .165775418282D-06
     .965524369920D+00  .204312500000D+03  .138096434054D+01 -.765281877062D-08
    -.390730561211D-09  .100000000000D+01  .226700000000D+04  .000000000000D+00
     .240000000000D+01  .000000000000D+00 -.125728547573D-07  .410000000000D+02
     .208800000000D+06  .400000000000D+01
10 23  6 20 12  0  0.0 -.419314019382D-04 -.159161572810D-11  .000000000000D+00
     .740000000000D+02 -.133031250000D+03  .368336771276D-08 -.246283376460D+01
    -.682659447193D-05  .853341526818D-02  .658631324768D-05  .515369403648D+04
     .216000000000D+06 -.242143869400D-07  .292160887973D+01 -.614672899246D-07
     .979441308565D+00  .260968750000D+03 -.243479018532D+01 -.759317342901D-08
    -.132505519387D-09  .100000000000D+01  .226700000000D+04  .000000000000D+00
     .240000000000D+01  .000000000000D+00  .232830643654D-08  .740000000000D+02
     .208800000000D+06  .400000000000D+01
9  23  6 20 12  0  0.0 -.131380278617D-03  .898126018001D-11  .000000000000D+00
     .520000000000D+02 -.405000000000D+02  .425660587615D-08  .228110766552D+01
    -.203214585781D-05  .241635250859D-02  .945292413235D-05  .515359632111D+04
     .216000000000D+06  .223517417908D-07 -.233550961853D+01  .987201929092D-07
     .956236760928D+00  .195468750000D+03  .193959088674D+01 -.765603319023D-08
     .536093759028D-09  .100000000000D+01  .226700000000D+04  .000000000000D+00
     .240000000000D+01  .000000000000D+00  .931322574615D-09  .520000000000D+02
     .208800000000D+06  .400000000000D+01
7  23  6 20 12  0  0.0  .147297047079D-03 -.102318153949D-10  .000000000000D+00
     .740000000000D+02  .621875000000D+01  .512878506306D-08 -.102199687866D+01
     .761821866035D-06  .174353836337D-01  .511854887009D-05  .515373175812D+04
     .216000000000D+06  .221654772758D-06 -.126340592165D+01  .337138772011D-06
     .949876856241D+00  .272218750000D+03 -.218711324934D+01 -.826498712703D-08
     .250367571671D-09  .100000000000D+01  .226700000000D+04  .000000000000D+00
     .240000000000D+01  .000000000000D+00 -.111758708954D-07  .740000000000D+02
     .208800000000D+06  .400000000000D+01
6  23  6 20 12  0  0.0  .583988148719D-03 -.227373675443D-11  .000000000000D+00
     .520000000000D+02  .121250000000D+02  .399409494151D-08 -.185648056644D+00
     .661239027977D-06  .272082665469D-02  .100210309029D-05  .515368773460D+04
     .216000000000D+06 -.186264514923D-08  .188550592028D+01 -.130385160446D-07
     .989024915623D+00  .377250000000D+03 -.746485076454D+00 -.808462247126D-08
    -.109290266664D-09  .100000000000D+01  .226700000000D+04  .000000000000D+00
     .240000000000D+01  .000000000000D+00  .372529029846D-08  .520000000000D+02
     .208800000000D+06  .400000000000D+01
13 23  6 20 12  0  0.0  .536524690688D-03  .511590769747D-11  .000000000000D+00
     .410000000000D+02 -.141875000000D+02  .415195866003D-08  .144689063552D+01
    -.793486833572D-06  .707303825766D-02  .920705497265D-05  .515367116356D+04
     .216000000000D+06 -.119209289551D-06 -.217486862501D+01 -.149011611938D-07
     .969755003194D+00  .205875000000D+03  .908243689641D+00 -.777818113532D-08
     .543594071446D-09  .100000000000D+01  .226700000000D+04  .000000000000D+00
     .240000000000D+01  .000000000000D+00 -.111758708954D-07  .410000000000D+02
     .208800000000D+06  .400000000000D+01
27 23  6 20 12  0  0.0  .127777457237D-04 -.750333128963D-11  .000000000000D+00
     .980000000000D+02  .134687500000D+03  .432553731885D-08  .184893078417D+01
     .684335827827D-05  .115505945869D-01  .828504562378D-05  .515367236710D+04
     .216000000000D+06 -.337138772011D-06  .824310592028D+00  .167638063431D-07
     .967368482026D+00  .224468750000D+03  .742457319196D+00 -.789318592573D-08
    -.642883921553D-11  .100000000000D+01  .226700000000D+04  .000000000000D+00
     .340000000000D+01  .000000000000D+00  .186264514923D-08  .980000000000D+02
     .208800000000D+06  .400000000000D+01
15 23  6 20 12  0  0.0  .505875796080D-04  .352429196937D-11  .000000000000D+00
     .990000000000D+02 -.380312500000D+02  .491591905347D-08  .857235411067D+00
    -.197067856789D-05  .149990034988D-01  .101327896118D-04  .515374197388D+04
     .216000000000D+06 -.219792127609D-06 -.245449318880D+01 -.819563865662D-07
     .932703401972D+00  .174406250000D+03  .120513088425D+01 -.828248785601D-08
     .340371320689D-09  .100000000000D+01  .226700000000D+04  .000000000000D+00
     .240000000000D+01  .000000000000D+00 -.107102096081D-07  .990000000000D+02
     .208800000000D+06  .400000000000D+01
21 23  6 20 12  0  0.0  .152945052832D-03 -.341060513165D-12  .000000000000D+00
     .790000000000D+02  .550000000000D+02  .458769109575D-08  .178685963234D+01
     .285729765892D-05  .246607050067D-01 -.273808836937D-06  .515361382675D+04
     .216000000000D+06  .281259417534D-06  .178947828643D+01  .156462192535D-06
     .961554011716D+00  .373281250000D+03 -.746861091751D+00 -.819391273793D-08
    -.326799326789D-09  .100000000000D+01  .226700000000D+04  .000000000000D+00
     .340000000000D+01  .000000000000D+00 -.102445483208D-07  .790000000000D+02
     .208800000000D+06  .400000000000D+01
20 23  6 20 12  0  0.0  .426997896284D-03 -.204636307899D-11  .000000000000D+00
     .520000000000D+02 -.108875000000D+03  .457590489052D-08  .455447786954D+00
    -.567734241486D-05  .403343525250D-02  .459328293800D-05  .515357200241D+04
     .216000000000D+06  .800937414169D-07  .275457591729D+01  .100582838058D-06
     .949164902288D+00  .285343750000D+03 -.287783077972D+01 -.824498629392D-08
    -.218937691062D-09  .100000000000D+01  .226700000000D+04  .000000000000D+00
     .240000000000D+01  .000000000000D+00 -.838190317154D-08  .520000000000D+02
     .208800000000D+06  .400000000000D+01
17 23  6 20 12  0  0.0  .718949362636D-03  .113686837722D-11  .000000000000D+00
     .760000000000D+02  .112531250000D+03  .411481425567D-08  .174934970620D+01
     .562891364098D-05  .135016044369D-01  .728294253349D-05  .515378509331D+04
     .216000000000D+06  .206753611565D-06  .890178266424D+00 -.229105353355D-06
     .974016084182D+00  .240125000000D+03 -.140499513553D+01 -.767246244600D-08
    -.225009372544D-10  .100000000000D+01  .226700000000D+04  .000000000000D+00
     .240000000000D+01  .000000000000D+00 -.111758708954D-07  .760000000000D+02
     .208800000000D+06  .400000000000D+01
25 23  6 20 12  0  0.0  .451026018709D-03  .250111042988D-11  .000000000000D+00
     .410000000000D+02  .219062500000D+02  .475305512668D-08 -.192435038467D+01
     .109151005745D-05  .110636677127D-01  .875815749168D-05  .515371753502D+04
     .216000000000D+06  .206753611565D-06 -.231216440693D+00  .372529029846D-08
     .953185596578D+00  .204437500000D+03  .105238964398D+01 -.775282293619D-08
    -.335013954676D-09  .100000000000D+01  .226700000000D+04  .000000000000D+00
     .240000000000D+01  .000000000000D+00  .558793544769D-08  .410000000000D+02
     .208800000000D+06  .400000000000D+01
23 23  6 20 12  0  0.0  .350070185959D-04  .375166564481D-11  .000000000000D+00
     .122000000000D+03 -.130218750000D+03  .384194574675D-08 -.123788009753D+01
    -.667758285999D-05  .325529382098D-02  .658072531223D-05  .515366702080D+04
     .216000000000D+06 -.577419996262D-07  .289430104730D+01 -.141561031342D-06
     .974563079493D+00  .263031250000D+03 -.310219868353D+01 -.775139430526D-08
    -.220723479733D-09  .100000000000D+01  .226700000000D+04  .000000000000D+00
     .240000000000D+01  .000000000000D+00 -.838190317154D-08  .378000000000D+03
     .208800000000D+06  .400000000000D+01
14 23  6 20 12  0  0.0  .966880470514D-04  .122781784739D-10  .000000000000D+00
     .800000000000D+01  .871875000000D+01  .485448792319D-08 -.177092785174D+01
     .331550836563D-06  .329518492799D-02  .917725265026D-05  .515367732239D+04
     .216000000000D+06  .391155481339D-07 -.187680835443D+00 -.558793544769D-07
     .948843976097D+00  .196687500000D+03 -.299726879232D+01 -.798140388608D-08
    -.412160025262D-09  .100000000000D+01  .226700000000D+04  .000000000000D+00
     .240000000000D+01  .000000000000D+00 -.791624188423D-08  .776000000000D+03
     .208800000000D+06  .400000000000D+01
11 23  6 20 12  0  0.0 -.243002548814D-03 -.152340362547D-10  .000000000000D+00
     .910000000000D+02  .546875000000D+01  .456233289662D-08  .126181373136D+01
     .391155481339D-06  .913989613764D-03  .575557351112D-06  .515376417923D+04
     .216000000000D+06  .465661287308D-07  .192630339201D+01  .298023223877D-07
     .965275050643D+00  .371000000000D+03 -.288630825247D+01 -.836106255753D-08
    -.149291932894D-09  .100000000000D+01  .226700000000D+04  .000000000000D+00
     .240000000000D+01  .000000000000D+00 -.884756445885D-08  .603000000000D+03
     .208800000000D+06  .400000000000D+01
